[
    {
        "Altitude(m)": 559716.1655399217,
        "Argument of Periapsis(deg)": 0.006622991110713501,
        "Eccentricity": 0.0,
        "Inclination(deg)": 53.0,
        "Latitude(deg)": -22.42057681612246,
        "Longitude(deg)": -42.76149452101612,
        "Mean Anomaly(deg)": -151.72660713242243,
        "RAAN(deg)": 219.99014336852804,
        "Satellite Name": "Starlink Shell 1 980",
        "Satellite Number": 980,
        "Semi-Major Axis(m)": 6931778.249405717,
        "Time(s)": 190
    },
    {
        "Altitude(m)": 559880.7955991442,
        "Argument of Periapsis(deg)": 0.0069715695902247375,
        "Eccentricity": 0.0,
        "Inclination(deg)": 53.0,
        "Latitude(deg)": -22.897911260680132,
        "Longitude(deg)": -42.361504767642614,
        "Mean Anomaly(deg)": -151.0997759288657,
        "RAAN(deg)": 219.98962459845055,
        "Satellite Name": "Starlink Shell 1 980",
        "Satellite Number": 980,
        "Semi-Major Axis(m)": 6931778.249405717,
        "Time(s)": 200
    },
    {
        "Altitude(m)": 560046.5467513398,
        "Argument of Periapsis(deg)": 0.007320148069735974,
        "Eccentricity": 0.0,
        "Inclination(deg)": 53.0,
        "Latitude(deg)": -23.373969226947942,
        "Longitude(deg)": -41.958436521998294,
        "Mean Anomaly(deg)": -150.472944725309,
        "RAAN(deg)": 219.98910582837308,
        "Satellite Name": "Starlink Shell 1 980",
        "Satellite Number": 980,
        "Semi-Major Axis(m)": 6931778.249405717,
        "Time(s)": 210
    },
    {
        "Altitude(m)": 560213.3597784383,
        "Argument of Periapsis(deg)": 0.007668726549247212,
        "Eccentricity": 0.0,
        "Inclination(deg)": 53.0,
        "Latitude(deg)": -23.8487129876654,
        "Longitude(deg)": -41.55220436962437,
        "Mean Anomaly(deg)": -149.84611352175224,
        "RAAN(deg)": 219.98858705829562,
        "Satellite Name": "Starlink Shell 1 980",
        "Satellite Number": 980,
        "Semi-Major Axis(m)": 6931778.249405717,
        "Time(s)": 220
    },
    {
        "Altitude(m)": 560381.174839853,
        "Argument of Periapsis(deg)": 0.00801730502875845,
        "Eccentricity": 0.0,
        "Inclination(deg)": 53.0,
        "Latitude(deg)": -24.322104066455342,
        "Longitude(deg)": -41.14272170448708,
        "Mean Anomaly(deg)": -149.2192823181956,
        "RAAN(deg)": 219.98806828821813,
        "Satellite Name": "Starlink Shell 1 980",
        "Satellite Number": 980,
        "Semi-Major Axis(m)": 6931778.249405717,
        "Time(s)": 230
    },
    {
        "Altitude(m)": 560549.9314992692,
        "Argument of Periapsis(deg)": 0.008365883508269684,
        "Eccentricity": 0.0,
        "Inclination(deg)": 53.0,
        "Latitude(deg)": -24.794103213060705,
        "Longitude(deg)": -40.729900206364206,
        "Mean Anomaly(deg)": -148.59245111463883,
        "RAAN(deg)": 219.98754951814064,
        "Satellite Name": "Starlink Shell 1 980",
        "Satellite Number": 980,
        "Semi-Major Axis(m)": 6931778.249405717,
        "Time(s)": 240
    },
    {
        "Altitude(m)": 560719.5687517521,
        "Argument of Periapsis(deg)": 0.008714461987780921,
        "Eccentricity": 0.0,
        "Inclination(deg)": 53.0,
        "Latitude(deg)": -25.26467037806467,
        "Longitude(deg)": -40.31365083235578,
        "Mean Anomaly(deg)": -147.96561991108214,
        "RAAN(deg)": 219.98703074806318,
        "Satellite Name": "Starlink Shell 1 980",
        "Satellite Number": 980,
        "Semi-Major Axis(m)": 6931778.249405717,
        "Time(s)": 250
    },
    {
        "Altitude(m)": 560890.0250510493,
        "Argument of Periapsis(deg)": 0.009063040467292158,
        "Eccentricity": 0.0,
        "Inclination(deg)": 53.0,
        "Latitude(deg)": -25.733764687090655,
        "Longitude(deg)": -39.89388329690229,
        "Mean Anomaly(deg)": -147.33878870752542,
        "RAAN(deg)": 219.98651197798569,
        "Satellite Name": "Starlink Shell 1 980",
        "Satellite Number": 980,
        "Semi-Major Axis(m)": 6931778.249405717,
        "Time(s)": 260
    },
    {
        "Altitude(m)": 561061.2383372057,
        "Argument of Periapsis(deg)": 0.009411618946803396,
        "Eccentricity": 0.0,
        "Inclination(deg)": 53.0,
        "Latitude(deg)": -26.201344414482637,
        "Longitude(deg)": -39.47050555333053,
        "Mean Anomaly(deg)": -146.7119575039687,
        "RAAN(deg)": 219.98599320790822,
        "Satellite Name": "Starlink Shell 1 980",
        "Satellite Number": 980,
        "Semi-Major Axis(m)": 6931778.249405717,
        "Time(s)": 270
    },
    {
        "Altitude(m)": 561233.1460643719,
        "Argument of Periapsis(deg)": 0.009760197426314633,
        "Eccentricity": 0.0,
        "Inclination(deg)": 53.0,
        "Latitude(deg)": -26.667366956471632,
        "Longitude(deg)": -39.043424789954685,
        "Mean Anomaly(deg)": -146.08512630041201,
        "RAAN(deg)": 219.9854744378308,
        "Satellite Name": "Starlink Shell 1 980",
        "Satellite Number": 980,
        "Semi-Major Axis(m)": 6931778.249405717,
        "Time(s)": 280
    },
    {
        "Altitude(m)": 561405.6852288726,
        "Argument of Periapsis(deg)": 0.01010877590582587,
        "Eccentricity": 0.0,
        "Inclination(deg)": 53.0,
        "Latitude(deg)": -27.131788803827313,
        "Longitude(deg)": -38.6125469151513,
        "Mean Anomaly(deg)": -145.45829509685527,
        "RAAN(deg)": 219.9849556677533,
        "Satellite Name": "Starlink Shell 1 980",
        "Satellite Number": 980,
        "Semi-Major Axis(m)": 6931778.249405717,
        "Time(s)": 290
    },
    {
        "Altitude(m)": 561578.7923974573,
        "Argument of Periapsis(deg)": 0.010457354385337106,
        "Eccentricity": 0.0,
        "Inclination(deg)": 53.0,
        "Latitude(deg)": -27.59456551400391,
        "Longitude(deg)": -38.17777604445936,
        "Mean Anomaly(deg)": -144.8314638932986,
        "RAAN(deg)": 219.98443689767583,
        "Satellite Name": "Starlink Shell 1 980",
        "Satellite Number": 980,
        "Semi-Major Axis(m)": 6931778.249405717,
        "Time(s)": 300
    },
    {
        "Altitude(m)": 561752.403735767,
        "Argument of Periapsis(deg)": 0.010805932864848343,
        "Eccentricity": 0.0,
        "Inclination(deg)": 53.0,
        "Latitude(deg)": -28.05565168279099,
        "Longitude(deg)": -37.73901550277127,
        "Mean Anomaly(deg)": -144.20463268974186,
        "RAAN(deg)": 219.98391812759837,
        "Satellite Name": "Starlink Shell 1 980",
        "Satellite Number": 980,
        "Semi-Major Axis(m)": 6931778.249405717,
        "Time(s)": 310
    },
    {
        "Altitude(m)": 561926.4550369524,
        "Argument of Periapsis(deg)": 0.01115451134435958,
        "Eccentricity": 0.0,
        "Inclination(deg)": 53.0,
        "Latitude(deg)": -28.51500091547608,
        "Longitude(deg)": -37.29616731607052,
        "Mean Anomaly(deg)": -143.57780148618514,
        "RAAN(deg)": 219.98339935752088,
        "Satellite Name": "Starlink Shell 1 980",
        "Satellite Number": 980,
        "Semi-Major Axis(m)": 6931778.249405717,
        "Time(s)": 320
    },
    {
        "Altitude(m)": 562100.8817505019,
        "Argument of Periapsis(deg)": 0.011503089823870818,
        "Eccentricity": 0.0,
        "Inclination(deg)": 53.0,
        "Latitude(deg)": -28.972565797536124,
        "Longitude(deg)": -36.849131705807316,
        "Mean Anomaly(deg)": -142.95097028262842,
        "RAAN(deg)": 219.98288058744342,
        "Satellite Name": "Starlink Shell 1 980",
        "Satellite Number": 980,
        "Semi-Major Axis(m)": 6931778.249405717,
        "Time(s)": 330
    },
    {
        "Altitude(m)": 562275.6190111806,
        "Argument of Periapsis(deg)": 0.011851668303382053,
        "Eccentricity": 0.0,
        "Inclination(deg)": 53.0,
        "Latitude(deg)": -29.428297864876015,
        "Longitude(deg)": -36.39780809902072,
        "Mean Anomaly(deg)": -142.3241390790717,
        "RAAN(deg)": 219.98236181736593,
        "Satellite Name": "Starlink Shell 1 980",
        "Satellite Number": 980,
        "Semi-Major Axis(m)": 6931778.249405717,
        "Time(s)": 340
    },
    {
        "Altitude(m)": 562450.6016681467,
        "Argument of Periapsis(deg)": 0.012200246782893292,
        "Eccentricity": 0.0,
        "Inclination(deg)": 53.0,
        "Latitude(deg)": -29.88214757363218,
        "Longitude(deg)": -35.942094628705156,
        "Mean Anomaly(deg)": -141.69730787551498,
        "RAAN(deg)": 219.98184304728846,
        "Satellite Name": "Starlink Shell 1 980",
        "Satellite Number": 980,
        "Semi-Major Axis(m)": 6931778.249405717,
        "Time(s)": 350
    },
    {
        "Altitude(m)": 562625.7643141475,
        "Argument of Periapsis(deg)": 0.012548825262404526,
        "Eccentricity": 0.0,
        "Inclination(deg)": 53.0,
        "Latitude(deg)": -30.334064269567012,
        "Longitude(deg)": -35.48188763756002,
        "Mean Anomaly(deg)": -141.0704766719582,
        "RAAN(deg)": 219.98132427721097,
        "Satellite Name": "Starlink Shell 1 980",
        "Satellite Number": 980,
        "Semi-Major Axis(m)": 6931778.249405717,
        "Time(s)": 360
    },
    {
        "Altitude(m)": 562801.0413148671,
        "Argument of Periapsis(deg)": 0.012897403741915765,
        "Eccentricity": 0.0,
        "Inclination(deg)": 53.0,
        "Latitude(deg)": -30.783996157084587,
        "Longitude(deg)": -35.01708269827803,
        "Mean Anomaly(deg)": -140.44364546840154,
        "RAAN(deg)": 219.9808055071335,
        "Satellite Name": "Starlink Shell 1 980",
        "Satellite Number": 980,
        "Semi-Major Axis(m)": 6931778.249405717,
        "Time(s)": 370
    }
]